STARLINK-30275          
1 57667U 23124E   26068.70438372  .00003262  00000+0  12225-3 0  9996
2 57667  53.1604 207.0027 0000929  81.4136 278.6970 15.30184111143566
TEVEL2-6                
1 63215U 25052F   26068.64958975  .00021046  00000+0  70909-3 0  9996
2 63215  97.4016 325.0381 0004769  95.6604 264.5181 15.30760889 54861
